{
  "type": "FeatureCollection",
  "features": [
    {
      "type": "Feature",
      "properties": {
        "norad_id": 34459,
        "name": "COSMOS 2251 DEB",
        "group": "cosmos-2251-debris",
        "lat": 13.852420149325933,
        "lon": 83.83539387691418,
        "alt_km": 1031.4788076820405,
        "timestamp": "2025-12-04T17:48:40.559278+00:00",
        "meta_object_name": "COSMOS 2251 DEB",
        "meta_object_id": "1993-036TC",
        "meta_epoch": "2025-12-04T05:01:06.964032",
        "meta_mean_motion": 14.0047504,
        "meta_eccentricity": 0.01918897,
        "meta_inclination": 74.0791,
        "meta_ra_of_asc_node": 268.7924,
        "meta_arg_of_pericenter": 340.5052,
        "meta_mean_anomaly": 18.881,
        "meta_ephemeris_type": 0,
        "meta_classification_type": "U",
        "meta_norad_cat_id": 34459,
        "meta_element_set_no": 999,
        "meta_rev_at_epoch": 85592,
        "meta_bstar": 0.0011477,
        "meta_mean_motion_dot": 1.973e-05,
        "meta_mean_motion_ddot": 0,
        "tle_line1": "1 34459U 93036TC  25338.20910838  .00001973  00000+0  11477-2 0  9999",
        "tle_line2": "2 34459  74.0791 268.7924 0191889 340.5052  18.8810 14.00475040855928"
      },
      "geometry": {
        "type": "Point",
        "coordinates": [
          83.83539387691418,
          13.852420149325933
        ]
      }
    },
    {
      "type": "Feature",
      "properties": {
        "norad_id": 34464,
        "name": "COSMOS 2251 DEB",
        "group": "cosmos-2251-debris",
        "lat": -64.8955883027731,
        "lon": 57.44893507610944,
        "alt_km": 486.2521771266065,
        "timestamp": "2025-12-04T17:48:40.559288+00:00",
        "meta_object_name": "COSMOS 2251 DEB",
        "meta_object_id": "1993-036TH",
        "meta_epoch": "2025-12-03T09:03:23.315616",
        "meta_mean_motion": 15.24915222,
        "meta_eccentricity": 0.00173278,
        "meta_inclination": 73.9895,
        "meta_ra_of_asc_node": 98.1357,
        "meta_arg_of_pericenter": 268.9386,
        "meta_mean_anomaly": 90.9829,
        "meta_ephemeris_type": 0,
        "meta_classification_type": "U",
        "meta_norad_cat_id": 34464,
        "meta_element_set_no": 999,
        "meta_rev_at_epoch": 89697,
        "meta_bstar": 0.0038136435,
        "meta_mean_motion_dot": 0.00096566,
        "meta_mean_motion_ddot": 0,
        "tle_line1": "1 34464U 93036TH  25337.37735319  .00096566  00000+0  38136-2 0  9994",
        "tle_line2": "2 34464  73.9895  98.1357 0017327 268.9386  90.9829 15.24915222896978"
      },
      "geometry": {
        "type": "Point",
        "coordinates": [
          57.44893507610944,
          -64.8955883027731
        ]
      }
    },
    {
      "type": "Feature",
      "properties": {
        "norad_id": 34468,
        "name": "COSMOS 2251 DEB",
        "group": "cosmos-2251-debris",
        "lat": -67.30770007341845,
        "lon": -4.524212621435396,
        "alt_km": 691.1767979124688,
        "timestamp": "2025-12-04T17:48:40.559298+00:00",
        "meta_object_name": "COSMOS 2251 DEB",
        "meta_object_id": "1993-036TM",
        "meta_epoch": "2025-12-04T05:01:38.279712",
        "meta_mean_motion": 14.47590669,
        "meta_eccentricity": 0.00762935,
        "meta_inclination": 74.0115,
        "meta_ra_of_asc_node": 133.1847,
        "meta_arg_of_pericenter": 279.8137,
        "meta_mean_anomaly": 79.4413,
        "meta_ephemeris_type": 0,
        "meta_classification_type": "U",
        "meta_norad_cat_id": 34468,
        "meta_element_set_no": 999,
        "meta_rev_at_epoch": 88338,
        "meta_bstar": 0.0005785575,
        "meta_mean_motion_dot": 2.18e-05,
        "meta_mean_motion_ddot": 0,
        "tle_line1": "1 34468U 93036TM  25338.20947083  .00002180  00000+0  57856-3 0  9994",
        "tle_line2": "2 34468  74.0115 133.1847 0076293 279.8137  79.4413 14.47590669883385"
      },
      "geometry": {
        "type": "Point",
        "coordinates": [
          -4.524212621435396,
          -67.30770007341845
        ]
      }
    },
    {
      "type": "Feature",
      "properties": {
        "norad_id": 34472,
        "name": "COSMOS 2251 DEB",
        "group": "cosmos-2251-debris",
        "lat": -14.523787450007067,
        "lon": 107.05788821077545,
        "alt_km": 1041.0375899806295,
        "timestamp": "2025-12-04T17:48:40.559309+00:00",
        "meta_object_name": "COSMOS 2251 DEB",
        "meta_object_id": "1993-036TR",
        "meta_epoch": "2025-12-03T15:36:16.702848",
        "meta_mean_motion": 13.70310012,
        "meta_eccentricity": 0.03271295,
        "meta_inclination": 74.0821,
        "meta_ra_of_asc_node": 113.0928,
        "meta_arg_of_pericenter": 246.0443,
        "meta_mean_anomaly": 110.6103,
        "meta_ephemeris_type": 0,
        "meta_classification_type": "U",
        "meta_norad_cat_id": 34472,
        "meta_element_set_no": 999,
        "meta_rev_at_epoch": 83602,
        "meta_bstar": 0.0015293427,
        "meta_mean_motion_dot": 1.946e-05,
        "meta_mean_motion_ddot": 0,
        "tle_line1": "1 34472U 93036TR  25337.65019332  .00001946  00000+0  15293-2 0  9991",
        "tle_line2": "2 34472  74.0821 113.0928 0327129 246.0443 110.6103 13.70310012836024"
      },
      "geometry": {
        "type": "Point",
        "coordinates": [
          107.05788821077545,
          -14.523787450007067
        ]
      }
    },
    {
      "type": "Feature",
      "properties": {
        "norad_id": 34474,
        "name": "COSMOS 2251 DEB",
        "group": "cosmos-2251-debris",
        "lat": 18.749226073579464,
        "lon": 154.5798957295682,
        "alt_km": 904.5661820161467,
        "timestamp": "2025-12-04T17:48:40.559319+00:00",
        "meta_object_name": "COSMOS 2251 DEB",
        "meta_object_id": "1993-036TT",
        "meta_epoch": "2025-12-04T06:54:33.238944",
        "meta_mean_motion": 14.06330655,
        "meta_eccentricity": 0.01978061,
        "meta_inclination": 74.0784,
        "meta_ra_of_asc_node": 340.9326,
        "meta_arg_of_pericenter": 56.9639,
        "meta_mean_anomaly": 322.3194,
        "meta_ephemeris_type": 0,
        "meta_classification_type": "U",
        "meta_norad_cat_id": 34474,
        "meta_element_set_no": 999,
        "meta_rev_at_epoch": 85390,
        "meta_bstar": 0.0030360569,
        "meta_mean_motion_dot": 5.958e-05,
        "meta_mean_motion_ddot": 0,
        "tle_line1": "1 34474U 93036TT  25338.28788471  .00005958  00000+0  30361-2 0  9990",
        "tle_line2": "2 34474  74.0784 340.9326 0197806  56.9639 322.3194 14.06330655853902"
      },
      "geometry": {
        "type": "Point",
        "coordinates": [
          154.5798957295682,
          18.749226073579464
        ]
      }
    },
    {
      "type": "Feature",
      "properties": {
        "norad_id": 34476,
        "name": "COSMOS 2251 DEB",
        "group": "cosmos-2251-debris",
        "lat": 61.99291382566326,
        "lon": -116.64879981649979,
        "alt_km": 1163.1234308077637,
        "timestamp": "2025-12-04T17:48:40.559329+00:00",
        "meta_object_name": "COSMOS 2251 DEB",
        "meta_object_id": "1993-036TV",
        "meta_epoch": "2025-12-03T08:15:02.261088",
        "meta_mean_motion": 13.81885878,
        "meta_eccentricity": 0.0319026,
        "meta_inclination": 74.0059,
        "meta_ra_of_asc_node": 98.3392,
        "meta_arg_of_pericenter": 319.9917,
        "meta_mean_anomaly": 37.8086,
        "meta_ephemeris_type": 0,
        "meta_classification_type": "U",
        "meta_norad_cat_id": 34476,
        "meta_element_set_no": 999,
        "meta_rev_at_epoch": 83508,
        "meta_bstar": 0.0036576,
        "meta_mean_motion_dot": 5.76e-05,
        "meta_mean_motion_ddot": 0,
        "tle_line1": "1 34476U 93036TV  25337.34377617  .00005760  00000+0  36576-2 0  9999",
        "tle_line2": "2 34476  74.0059  98.3392 0319026 319.9917  37.8086 13.81885878835088"
      },
      "geometry": {
        "type": "Point",
        "coordinates": [
          -116.64879981649979,
          61.99291382566326
        ]
      }
    },
    {
      "type": "Feature",
      "properties": {
        "norad_id": 34477,
        "name": "COSMOS 2251 DEB",
        "group": "cosmos-2251-debris",
        "lat": 13.278187583425133,
        "lon": 88.62792104860011,
        "alt_km": 713.9922478722765,
        "timestamp": "2025-12-04T17:48:40.559339+00:00",
        "meta_object_name": "COSMOS 2251 DEB",
        "meta_object_id": "1993-036TW",
        "meta_epoch": "2025-12-04T08:08:19.877280",
        "meta_mean_motion": 14.56763185,
        "meta_eccentricity": 0.00769163,
        "meta_inclination": 73.9791,
        "meta_ra_of_asc_node": 85.5074,
        "meta_arg_of_pericenter": 274.1917,
        "meta_mean_anomaly": 146.1725,
        "meta_ephemeris_type": 0,
        "meta_classification_type": "U",
        "meta_norad_cat_id": 34477,
        "meta_element_set_no": 999,
        "meta_rev_at_epoch": 88503,
        "meta_bstar": 0.0020469735,
        "meta_mean_motion_dot": 9.515e-05,
        "meta_mean_motion_ddot": 0,
        "tle_line1": "1 34477U 93036TW  25338.33911895  .00009515  00000+0  20470-2 0  9990",
        "tle_line2": "2 34477  73.9791  85.5074 0076916 274.1917 146.1725 14.56763185885038"
      },
      "geometry": {
        "type": "Point",
        "coordinates": [
          88.62792104860011,
          13.278187583425133
        ]
      }
    }
  ]
}